[ {
  "OBJECT_ID": "2012-006B",
  "OBJECT_NAME": "ALMASAT-1",
  "NORAD_CAT_ID": "38078",
  "OBJECT_TYPE": "PAYLOAD",
  "PERIOD": "95.580",
  "INCLINATION": "69.4453",
  "APOGEE": "803.581",
  "PERIGEE": "289.715",
  "ECCENTRICITY": "0.0371034",
  "MEAN_MOTION": "15.06584287",
  "TLE_LINE1": "1 38078U 12006B   16238.92396206 +.00042292 +38217-5 +54767-3 0  9999",
  "TLE_LINE2": "2 38078 069.4453 198.3051 0371034 001.0218 359.1603 15.06584287240072",
  "LAUNCH_DATE": "2012-02-13",
  "LAUNCH_SITE": "FRENCH GUIANA",
  "OWNER": "ITALY",
  "ORBIT_TYPE": "Low Earth Orbit",
  "OPERATIONAL_STATUS": "Nonoperational"
}, {
  "OBJECT_ID": "2012-047B",
  "OBJECT_NAME": "PROITERES",
  "NORAD_CAT_ID": "38756",
  "OBJECT_TYPE": "PAYLOAD",
  "PERIOD": "97.545",
  "INCLINATION": "98.2422",
  "APOGEE": "649.720",
  "PERIGEE": "632.796",
  "ECCENTRICITY": "0.0012055",
  "MEAN_MOTION": "14.76227776",
  "TLE_LINE1": "1 38756U 12047B   16239.48823218  .00000143  00000-0  28483-4 0  9997",
  "TLE_LINE2": "2 38756  98.2422 351.7274 0012055 349.8564  10.2399 14.76227776213367",
  "LAUNCH_DATE": "2012-09-09",
  "LAUNCH_SITE": "SIRHARIKOTA",
  "OWNER": "JAPAN",
  "ORBIT_TYPE": "Low Earth Orbit",
  "OPERATIONAL_STATUS": "Nonoperational"
}, {
  "OBJECT_ID": "2012-072A",
  "OBJECT_NAME": "KMS 3-2",
  "NORAD_CAT_ID": "39026",
  "OBJECT_TYPE": "PAYLOAD",
  "PERIOD": "94.489",
  "INCLINATION": "97.2457",
  "APOGEE": "523.752",
  "PERIGEE": "463.956",
  "ECCENTRICITY": "0.0043507",
  "MEAN_MOTION": "15.23979258",
  "TLE_LINE1": "1 39026U 12072A   16239.15694462  .00002191  00000-0  91076-4 0  9990",
  "TLE_LINE2": "2 39026  97.2457 261.0235 0043507 138.7296 221.7244 15.23979258205033",
  "LAUNCH_DATE": "2012-12-12",
  "LAUNCH_SITE": "Yunsong, DPRK",
  "OWNER": "NORTH KOREA",
  "ORBIT_TYPE": "Low Earth Orbit",
  "OPERATIONAL_STATUS": "Nonoperational"
}, {
  "OBJECT_ID": "2013-009B",
  "OBJECT_NAME": "AAUSAT3",
  "NORAD_CAT_ID": "39087",
  "OBJECT_TYPE": "PAYLOAD",
  "PERIOD": "100.320",
  "INCLINATION": "98.5761",
  "APOGEE": "783.533",
  "PERIGEE": "763.994",
  "ECCENTRICITY": "0.001366",
  "MEAN_MOTION": "14.35392496",
  "TLE_LINE1": "1 39087U 13009B   16239.38002855  .00000134  00000-0  61932-4 0  9995",
  "TLE_LINE2": "2 39087  98.5761  80.8045 0013660  94.5193 265.7550 14.35392496183229",
  "LAUNCH_DATE": "2013-02-25",
  "LAUNCH_SITE": "SIRHARIKOTA",
  "OWNER": "DENMARK",
  "ORBIT_TYPE": "Low Earth Orbit",
  "OPERATIONAL_STATUS": "Nonoperational"
}, {
  "OBJECT_ID": "2013-015C",
  "OBJECT_NAME": "DOVE 2",
  "NORAD_CAT_ID": "39132",
  "OBJECT_TYPE": "PAYLOAD",
  "PERIOD": "95.612",
  "INCLINATION": "64.8755",
  "APOGEE": "558.307",
  "PERIGEE": "538.109",
  "ECCENTRICITY": "0.001458",
  "MEAN_MOTION": "15.06075404",
  "TLE_LINE1": "1 39132U 13015C   16239.16692633  .00000580  00000-0  51531-4 0  9997",
  "TLE_LINE2": "2 39132  64.8755 131.6285 0014580 325.7652 193.4104 15.06075404184051",
  "LAUNCH_DATE": "2013-04-19",
  "LAUNCH_SITE": "TYURATAM MISSILE AND SPACE COMPLEX",
  "OWNER": "UNITED STATES OF AMERICA",
  "ORBIT_TYPE": "Low Earth Orbit",
  "OPERATIONAL_STATUS": "Nonoperational"
}, {
  "OBJECT_ID": "2013-015F",
  "OBJECT_NAME": "SOMP",
  "NORAD_CAT_ID": "39135",
  "OBJECT_TYPE": "PAYLOAD",
  "PERIOD": "95.092",
  "INCLINATION": "64.8697",
  "APOGEE": "531.794",
  "PERIGEE": "514.324",
  "ECCENTRICITY": "0.0012657",
  "MEAN_MOTION": "15.14315421",
  "TLE_LINE1": "1 39135U 13015F   16238.93146670 +.00001408 +00000-0 +86800-4 0  9996",
  "TLE_LINE2": "2 39135 064.8697 104.1029 0012657 307.1437 052.8530 15.14315421184199",
  "LAUNCH_DATE": "2013-04-19",
  "LAUNCH_SITE": "TYURATAM MISSILE AND SPACE COMPLEX",
  "OWNER": "GERMANY",
  "ORBIT_TYPE": "Low Earth Orbit",
  "OPERATIONAL_STATUS": "Nonoperational"
}, {
  "OBJECT_ID": "2013-018C",
  "OBJECT_NAME": "TURKSAT 3U",
  "NORAD_CAT_ID": "39152",
  "OBJECT_TYPE": "PAYLOAD",
  "PERIOD": "97.294",
  "INCLINATION": "97.9653",
  "APOGEE": "640.129",
  "PERIGEE": "618.294",
  "ECCENTRICITY": "0.001558",
  "MEAN_MOTION": "14.80036277",
  "TLE_LINE1": "1 39152U 13018C   16239.19507090  .00000263  00000-0  41766-4 0  9994",
  "TLE_LINE2": "2 39152  97.9653 323.1278 0015580 279.3504  80.5946 14.80036277179935",
  "LAUNCH_DATE": "2013-04-26",
  "LAUNCH_SITE": "Jiuquan Satellite Launch Center, China",
  "OWNER": "TURKEY",
  "ORBIT_TYPE": "Low Earth Orbit",
  "OPERATIONAL_STATUS": "Nonoperational"
}, {
  "OBJECT_ID": "2013-055G",
  "OBJECT_NAME": "CUSAT 2/FALCON 9",
  "NORAD_CAT_ID": "39271",
  "OBJECT_TYPE": "PAYLOAD",
  "PERIOD": "100.511",
  "INCLINATION": "80.9706",
  "APOGEE": "1249.477",
  "PERIGEE": "316.199",
  "ECCENTRICITY": "0.0651642",
  "MEAN_MOTION": "14.32665117",
  "TLE_LINE1": "1 39271U 13055G   16238.89126359 +.00006940 +00000-0 +18440-3 0  9998",
  "TLE_LINE2": "2 39271 080.9706 308.4442 0651642 353.0495 006.1959 14.32665117150273",
  "LAUNCH_DATE": "2013-09-29",
  "LAUNCH_SITE": "AIR FORCE WESTERN TEST RANGE",
  "OWNER": "UNITED STATES OF AMERICA",
  "ORBIT_TYPE": "Low Earth Orbit",
  "OPERATIONAL_STATUS": "Nonoperational"
}, {
  "OBJECT_ID": "2013-064D",
  "OBJECT_NAME": "DRAGONSAT",
  "NORAD_CAT_ID": "39383",
  "OBJECT_TYPE": "PAYLOAD",
  "PERIOD": "89.229",
  "INCLINATION": "40.4843",
  "APOGEE": "242.258",
  "PERIGEE": "230.491",
  "ECCENTRICITY": "0.0008895",
  "MEAN_MOTION": "16.13824228",
  "TLE_LINE1": "1 39383U 13064D   16239.43674271  .01108454  79836-3  86908-3 0  9998",
  "TLE_LINE2": "2 39383  40.4843 271.6175 0008895 125.6185 329.5464 16.13824228156325",
  "LAUNCH_DATE": "2013-11-20",
  "LAUNCH_SITE": "WALLOPS ISLAND",
  "OWNER": "UNITED STATES OF AMERICA",
  "ORBIT_TYPE": "Low Earth Orbit",
  "OPERATIONAL_STATUS": "Nonoperational"
}, {
  "OBJECT_ID": "2013-064N",
  "OBJECT_NAME": "SENSE SV2",
  "NORAD_CAT_ID": "39392",
  "OBJECT_TYPE": "PAYLOAD",
  "PERIOD": "92.975",
  "INCLINATION": "40.5004",
  "APOGEE": "420.482",
  "PERIGEE": "419.973",
  "ECCENTRICITY": "3.75e-05",
  "MEAN_MOTION": "15.48803206",
  "TLE_LINE1": "1 39392U 13064N   16238.77285014  .00008744  00000-0  16298-3 0  9996",
  "TLE_LINE2": "2 39392  40.5004  11.4562 0000375 231.5525 128.5259 15.48803206153736",
  "LAUNCH_DATE": "2013-11-20",
  "LAUNCH_SITE": "WALLOPS ISLAND",
  "OWNER": "UNITED STATES OF AMERICA",
  "ORBIT_TYPE": "Low Earth Orbit",
  "OPERATIONAL_STATUS": "Nonoperational"
}, {
  "OBJECT_ID": "2013-064Z",
  "OBJECT_NAME": "HO'OPONOPONO 2",
  "NORAD_CAT_ID": "39403",
  "OBJECT_TYPE": "PAYLOAD",
  "PERIOD": "93.245",
  "INCLINATION": "40.5265",
  "APOGEE": "435.081",
  "PERIGEE": "431.753",
  "ECCENTRICITY": "0.0002443",
  "MEAN_MOTION": "15.44306715",
  "TLE_LINE1": "1 39403U 13064Z   16238.84749096  .00006192  00000-0  13625-3 0  9998",
  "TLE_LINE2": "2 39403  40.5265  29.5200 0002443 159.0897 201.0020 15.44306715153069",
  "LAUNCH_DATE": "2013-11-20",
  "LAUNCH_SITE": "WALLOPS ISLAND",
  "OWNER": "UNITED STATES OF AMERICA",
  "ORBIT_TYPE": "Low Earth Orbit",
  "OPERATIONAL_STATUS": "Nonoperational"
}, {
  "OBJECT_ID": "2013-066F",
  "OBJECT_NAME": "UNISAT 5",
  "NORAD_CAT_ID": "39421",
  "OBJECT_TYPE": "PAYLOAD",
  "PERIOD": "96.830",
  "INCLINATION": "97.6868",
  "APOGEE": "629.457",
  "PERIGEE": "584.302",
  "ECCENTRICITY": "0.0032323",
  "MEAN_MOTION": "14.87139663",
  "TLE_LINE1": "1 39421U 13066F   16239.43359165  .00000492  00000-0  60158-4 0  9991",
  "TLE_LINE2": "2 39421  97.6868 300.6432 0032323 129.2223 231.1882 14.87139663149846",
  "LAUNCH_DATE": "2013-11-21",
  "LAUNCH_SITE": "Orenburg, Russia",
  "OWNER": "ITALY",
  "ORBIT_TYPE": "Low Earth Orbit",
  "OPERATIONAL_STATUS": "Nonoperational"
}, {
  "OBJECT_ID": "2013-066J",
  "OBJECT_NAME": "CINEMA 2",
  "NORAD_CAT_ID": "39424",
  "OBJECT_TYPE": "PAYLOAD",
  "PERIOD": "97.827",
  "INCLINATION": "97.6642",
  "APOGEE": "720.160",
  "PERIGEE": "589.350",
  "ECCENTRICITY": "0.0092999",
  "MEAN_MOTION": "14.71980153",
  "TLE_LINE1": "1 39424U 13066J   16238.93705721 +.00000184 +00000-0 +35043-4 0  9994",
  "TLE_LINE2": "2 39424 097.6642 275.5246 0092999 190.5632 169.3625 14.71980153148052",
  "LAUNCH_DATE": "2013-11-21",
  "LAUNCH_SITE": "Orenburg, Russia",
  "OWNER": "UNITED STATES OF AMERICA",
  "ORBIT_TYPE": "Low Earth Orbit",
  "OPERATIONAL_STATUS": "Nonoperational"
}, {
  "OBJECT_ID": "2013-066L",
  "OBJECT_NAME": "CINEMA 3",
  "NORAD_CAT_ID": "39426",
  "OBJECT_TYPE": "PAYLOAD",
  "PERIOD": "98.025",
  "INCLINATION": "97.6612",
  "APOGEE": "737.846",
  "PERIGEE": "590.632",
  "ECCENTRICITY": "0.010452",
  "MEAN_MOTION": "14.69007801",
  "TLE_LINE1": "1 39426U 13066L   16239.08476075  .00000154  00000-0  32140-4 0  9992",
  "TLE_LINE2": "2 39426  97.6612 271.0436 0104520 203.3440 156.3003 14.69007801148005",
  "LAUNCH_DATE": "2013-11-21",
  "LAUNCH_SITE": "Orenburg, Russia",
  "OWNER": "UNITED STATES OF AMERICA",
  "ORBIT_TYPE": "Low Earth Orbit",
  "OPERATIONAL_STATUS": "Nonoperational"
}, {
  "OBJECT_ID": "2013-066N",
  "OBJECT_NAME": "DELFI-N3XT",
  "NORAD_CAT_ID": "39428",
  "OBJECT_TYPE": "PAYLOAD",
  "PERIOD": "98.200",
  "INCLINATION": "97.6674",
  "APOGEE": "758.215",
  "PERIGEE": "587.024",
  "ECCENTRICITY": "0.0121399",
  "MEAN_MOTION": "14.66389314",
  "TLE_LINE1": "1 39428U 13066N   16239.50678163  .00000396  00000-0  72555-4 0  9995",
  "TLE_LINE2": "2 39428  97.6674 266.0785 0121399 218.9644 140.2767 14.66389314147666",
  "LAUNCH_DATE": "2013-11-21",
  "LAUNCH_SITE": "Orenburg, Russia",
  "OWNER": "NETHERLANDS",
  "ORBIT_TYPE": "Low Earth Orbit",
  "OPERATIONAL_STATUS": "Nonoperational"
}]